{"type": "FeatureCollection", "features": [ {"type": "Feature", "properties": {"norad_id": 66623, "name": "STARLINK-35920", "group": "last-30-days", "lat": -50.88103361796293, "lon": 116.57185067914774, "alt_km": 329.0238499546049, "timestamp": "2025-12-04T03:47:53.337362+00:00", "meta": {"OBJECT_NAME": "STARLINK-35920", "OBJECT_ID": "2025-271G", "EPOCH": "2025-12-02T16:00:03.000096", "MEAN_MOTION": 15.86675946, "ECCENTRICITY": 6.32e-05, "INCLINATION": 53.1579, "RA_OF_ASC_NODE": 236.8677, "ARG_OF_PERICENTER": 109.9501, "MEAN_ANOMALY": 273.0195, "EPHEMERIS_TYPE": 0, "CLASSIFICATION_TYPE": "U", "NORAD_CAT_ID": 66623, "ELEMENT_SET_NO": 999, "REV_AT_EPOCH": 262, "BSTAR": -0.0061591, "MEAN_MOTION_DOT": -0.01399066, "MEAN_MOTION_DDOT": 0}, "tle": {"line1": "1 66623U 25271G   25336.66670139 -.01399066  00000+0 -61591-2 0  9996", "line2": "2 66623  53.1579 236.8677 0000632 109.9501 273.0195 15.86675946  2624"}}, "geometry": {"type": "Point", "coordinates": [116.57185067914774, -50.88103361796293]}}, {"type": "Feature", "properties": {"norad_id": 66624, "name": "STARLINK-35927", "group": "last-30-days", "lat": -50.20449866961889, "lon": 113.52399081000809, "alt_km": 329.03064296144476, "timestamp": "2025-12-04T03:47:53.337378+00:00", "meta": {"OBJECT_NAME": "STARLINK-35927", "OBJECT_ID": "2025-271H", "EPOCH": "2025-12-02T16:00:03.000096", "MEAN_MOTION": 15.86640895, "ECCENTRICITY": 5.34e-05, "INCLINATION": 53.1579, "RA_OF_ASC_NODE": 236.8716, "ARG_OF_PERICENTER": 100.072, "MEAN_ANOMALY": 280.9753, "EPHEMERIS_TYPE": 0, "CLASSIFICATION_TYPE": "U", "NORAD_CAT_ID": 66624, "ELEMENT_SET_NO": 999, "REV_AT_EPOCH": 262, "BSTAR": -0.0061391, "MEAN_MOTION_DOT": -0.01392931, "MEAN_MOTION_DDOT": 0}, "tle": {"line1": "1 66624U 25271H   25336.66670139 -.01392931  00000+0 -61391-2 0  9999", "line2": "2 66624  53.1579 236.8716 0000534 100.0720 280.9753 15.86640895  2627"}}, "geometry": {"type": "Point", "coordinates": [113.52399081000809, -50.20449866961889]}}, {"type": "Feature", "properties": {"norad_id": 66625, "name": "STARLINK-35929", "group": "last-30-days", "lat": -51.59983217746412, "lon": 120.43189460144998, "alt_km": 329.0896886758528, "timestamp": "2025-12-04T03:47:53.337390+00:00", "meta": {"OBJECT_NAME": "STARLINK-35929", "OBJECT_ID": "2025-271J", "EPOCH": "2025-12-02T16:00:03.000096", "MEAN_MOTION": 15.86692566, "ECCENTRICITY": 6.47e-05, "INCLINATION": 53.1578, "RA_OF_ASC_NODE": 236.8624, "ARG_OF_PERICENTER": 107.5282, "MEAN_ANOMALY": 277.9373, "EPHEMERIS_TYPE": 0, "CLASSIFICATION_TYPE": "U", "NORAD_CAT_ID": 66625, "ELEMENT_SET_NO": 999, "REV_AT_EPOCH": 262, "BSTAR": -0.0061849, "MEAN_MOTION_DOT": -0.01405175, "MEAN_MOTION_DDOT": 0}, "tle": {"line1": "1 66625U 25271J   25336.66670139 -.01405175  00000+0 -61849-2 0  9993", "line2": "2 66625  53.1578 236.8624 0000647 107.5282 277.9373 15.86692566  2621"}}, "geometry": {"type": "Point", "coordinates": [120.43189460144998, -51.59983217746412]}}, {"type": "Feature", "properties": {"norad_id": 66626, "name": "STARLINK-35902", "group": "last-30-days", "lat": -52.17019850266791, "lon": 124.26850590557432, "alt_km": 329.1658910022634, "timestamp": "2025-12-04T03:47:53.337400+00:00", "meta": {"OBJECT_NAME": "STARLINK-35902", "OBJECT_ID": "2025-271K", "EPOCH": "2025-12-02T16:00:03.000096", "MEAN_MOTION": 15.86719001, "ECCENTRICITY": 6.58e-05, "INCLINATION": 53.1578, "RA_OF_ASC_NODE": 236.8575, "ARG_OF_PERICENTER": 110.0104, "MEAN_ANOMALY": 277.886, "EPHEMERIS_TYPE": 0, "CLASSIFICATION_TYPE": "U", "NORAD_CAT_ID": 66626, "ELEMENT_SET_NO": 999, "REV_AT_EPOCH": 262, "BSTAR": -0.0062488, "MEAN_MOTION_DOT": -0.01419385, "MEAN_MOTION_DDOT": 0}, "tle": {"line1": "1 66626U 25271K   25336.66670139 -.01419385  00000+0 -62488-2 0  9992", "line2": "2 66626  53.1578 236.8575 0000658 110.0104 277.8860 15.86719001  2625"}}, "geometry": {"type": "Point", "coordinates": [124.26850590557432, -52.17019850266791]}}, {"type": "Feature", "properties": {"norad_id": 66627, "name": "STARLINK-35904", "group": "last-30-days", "lat": -52.62817434506682, "lon": 128.3579851651986, "alt_km": 329.1647715953586, "timestamp": "2025-12-04T03:47:53.337410+00:00", "meta": {"OBJECT_NAME": "STARLINK-35904", "OBJECT_ID": "2025-271L", "EPOCH": "2025-12-02T16:00:03.000096", "MEAN_MOTION": 15.86735143, "ECCENTRICITY": 5.59e-05, "INCLINATION": 53.1576, "RA_OF_ASC_NODE": 236.8519, "ARG_OF_PERICENTER": 104.1205, "MEAN_ANOMALY": 286.2982, "EPHEMERIS_TYPE": 0, "CLASSIFICATION_TYPE": "U", "NORAD_CAT_ID": 66627, "ELEMENT_SET_NO": 999, "REV_AT_EPOCH": 246, "BSTAR": -0.0062783, "MEAN_MOTION_DOT": -0.01426126, "MEAN_MOTION_DDOT": 0}, "tle": {"line1": "1 66627U 25271L   25336.66670139 -.01426126  00000+0 -62783-2 0  9992", "line2": "2 66627  53.1576 236.8519 0000559 104.1205 286.2982 15.86735143  2464"}}, "geometry": {"type": "Point", "coordinates": [128.3579851651986, -52.62817434506682]}}, {"type": "Feature", "properties": {"norad_id": 66628, "name": "STARLINK-35862", "group": "last-30-days", "lat": -52.916582798209944, "lon": 132.08337450880643, "alt_km": 329.1600168055729, "timestamp": "2025-12-04T03:47:53.337420+00:00", "meta": {"OBJECT_NAME": "STARLINK-35862", "OBJECT_ID": "2025-271M", "EPOCH": "2025-12-02T16:00:03.000096", "MEAN_MOTION": 15.86761696, "ECCENTRICITY": 5.41e-05, "INCLINATION": 53.1577, "RA_OF_ASC_NODE": 236.8477, "ARG_OF_PERICENTER": 96.8821, "MEAN_ANOMALY": 295.7339, "EPHEMERIS_TYPE": 0, "CLASSIFICATION_TYPE": "U", "NORAD_CAT_ID": 66628, "ELEMENT_SET_NO": 999, "REV_AT_EPOCH": 262, "BSTAR": -0.006303, "MEAN_MOTION_DOT": -0.01432606, "MEAN_MOTION_DDOT": 0}, "tle": {"line1": "1 66628U 25271M   25336.66670139 -.01432606  00000+0 -63030-2 0  9999", "line2": "2 66628  53.1577 236.8477 0000541  96.8821 295.7339 15.86761696  2622"}}, "geometry": {"type": "Point", "coordinates": [132.08337450880643, -52.916582798209944]}}, {"type": "Feature", "properties": {"norad_id": 66629, "name": "STARLINK-35956", "group": "last-30-days", "lat": -53.09116601155888, "lon": 136.0064237909522, "alt_km": 329.1597981207142, "timestamp": "2025-12-04T03:47:53.337430+00:00", "meta": {"OBJECT_NAME": "STARLINK-35956", "OBJECT_ID": "2025-271N", "EPOCH": "2025-12-02T16:00:03.000096", "MEAN_MOTION": 15.86788757, "ECCENTRICITY": 5.13e-05, "INCLINATION": 53.1576, "RA_OF_ASC_NODE": 236.8428, "ARG_OF_PERICENTER": 107.0461, "MEAN_ANOMALY": 287.9009, "EPHEMERIS_TYPE": 0, "CLASSIFICATION_TYPE": "U", "NORAD_CAT_ID": 66629, "ELEMENT_SET_NO": 999, "REV_AT_EPOCH": 262, "BSTAR": -0.0063518, "MEAN_MOTION_DOT": -0.01443853, "MEAN_MOTION_DDOT": 0}, "tle": {"line1": "1 66629U 25271N   25336.66670139 -.01443853  00000+0 -63518-2 0  9997", "line2": "2 66629  53.1576 236.8428 0000513 107.0461 287.9009 15.86788757  2626"}}, "geometry": {"type": "Point", "coordinates": [136.0064237909522, -53.09116601155888]}}, {"type": "Feature", "properties": {"norad_id": 66630, "name": "STARLINK-35949", "group": "last-30-days", "lat": -53.13696068835538, "lon": 139.59911127861983, "alt_km": 329.23702151488305, "timestamp": "2025-12-04T03:47:53.337439+00:00", "meta": {"OBJECT_NAME": "STARLINK-35949", "OBJECT_ID": "2025-271P", "EPOCH": "2025-12-02T16:00:03.000096", "MEAN_MOTION": 15.86820273, "ECCENTRICITY": 6.98e-05, "INCLINATION": 53.1575, "RA_OF_ASC_NODE": 236.8382, "ARG_OF_PERICENTER": 114.0731, "MEAN_ANOMALY": 282.9235, "EPHEMERIS_TYPE": 0, "CLASSIFICATION_TYPE": "U", "NORAD_CAT_ID": 66630, "ELEMENT_SET_NO": 999, "REV_AT_EPOCH": 262, "BSTAR": -0.0063737, "MEAN_MOTION_DOT": -0.01450251, "MEAN_MOTION_DDOT": 0}, "tle": {"line1": "1 66630U 25271P   25336.66670139 -.01450251  00000+0 -63737-2 0  9992", "line2": "2 66630  53.1575 236.8382 0000698 114.0731 282.9235 15.86820273  2624"}}, "geometry": {"type": "Point", "coordinates": [139.59911127861983, -53.13696068835538]}}, {"type": "Feature", "properties": {"norad_id": 66631, "name": "STARLINK-35965", "group": "last-30-days", "lat": -53.085903301282755, "lon": 142.81898798563634, "alt_km": 329.10287841049285, "timestamp": "2025-12-04T03:47:53.337462+00:00", "meta": {"OBJECT_NAME": "STARLINK-35965", "OBJECT_ID": "2025-271Q", "EPOCH": "2025-12-02T16:00:03.000096", "MEAN_MOTION": 15.86856973, "ECCENTRICITY": 5.39e-05, "INCLINATION": 53.1575, "RA_OF_ASC_NODE": 236.8346, "ARG_OF_PERICENTER": 98.141, "MEAN_ANOMALY": 300.6509, "EPHEMERIS_TYPE": 0, "CLASSIFICATION_TYPE": "U", "NORAD_CAT_ID": 66631, "ELEMENT_SET_NO": 999, "REV_AT_EPOCH": 262, "BSTAR": -0.0063895, "MEAN_MOTION_DOT": -0.01455528, "MEAN_MOTION_DDOT": 0}, "tle": {"line1": "1 66631U 25271Q   25336.66670139 -.01455528  00000+0 -63895-2 0  9990", "line2": "2 66631  53.1575 236.8346 0000539  98.1410 300.6509 15.86856973  2623"}}, "geometry": {"type": "Point", "coordinates": [142.81898798563634, -53.085903301282755]}}, {"type": "Feature", "properties": {"norad_id": 66632, "name": "STARLINK-35973", "group": "last-30-days", "lat": -52.909680363538655, "lon": 146.6669969959641, "alt_km": 329.0575786159043, "timestamp": "2025-12-04T03:47:53.337478+00:00", "meta": {"OBJECT_NAME": "STARLINK-35973", "OBJECT_ID": "2025-271R", "EPOCH": "2025-12-02T16:00:03.000096", "MEAN_MOTION": 15.86879822, "ECCENTRICITY": 5.39e-05, "INCLINATION": 53.1573, "RA_OF_ASC_NODE": 236.8297, "ARG_OF_PERICENTER": 93.5353, "MEAN_ANOMALY": 307.4968, "EPHEMERIS_TYPE": 0, "CLASSIFICATION_TYPE": "U", "NORAD_CAT_ID": 66632, "ELEMENT_SET_NO": 999, "REV_AT_EPOCH": 256, "BSTAR": -0.0064001, "MEAN_MOTION_DOT": -0.01459034, "MEAN_MOTION_DDOT": 0}, "tle": {"line1": "1 66632U 25271R   25336.66670139 -.01459034  00000+0 -64001-2 0  9997", "line2": "2 66632  53.1573 236.8297 0000539  93.5353 307.4968 15.86879822  2567"}}, "geometry": {"type": "Point", "coordinates": [146.6669969959641, -52.909680363538655]}}]}